ONEWEB-0531             
1 54146U 22138AK  24156.28565784  .00000041  00000+0  69060-4 0  9998
2 54146  87.9223  62.2447 0002097  46.9070 313.2239 13.20771700 82115
ONEWEB-0535             
1 54147U 22138AL  24156.52962048  .00000070  00000+0  14269-3 0  9992
2 54147  87.9144  92.7534 0001914  74.6616 285.4728 13.19723789 79755
ONEWEB-0536             
1 54148U 22138AM  24156.50030781  .00000015  00000+0  41704-5 0  9996
2 54148  87.9221  62.2512 0001404  44.9778 315.1469 13.20767801 82137
ONEWEB-0527             
1 54642U 22166A   24156.36252307  .00000049  00000+0  87276-4 0  9990
2 54642  87.9302  31.8640 0001953  79.6052 280.5302 13.21825281 73857
ONEWEB-0528             
1 54643U 22166B   24156.36882836  .00000081  00000+0  16524-3 0  9990
2 54643  87.9306  31.8489 0002036  83.6461 276.4904 13.21824857 73866
ONEWEB-0539             
1 54644U 22166C   24155.95091975  .00000012  00000+0 -23918-5 0  9993
2 54644  87.9310  31.9341 0001717  87.0190 273.1140 13.21825748 73352
ONEWEB-0540             
1 54645U 22166D   24155.94540265 -.00000049  00000+0 -15094-3 0  9999
2 54645  87.9302  31.9543 0001771  91.1190 269.0146 13.21824231 73349
ONEWEB-0542             
1 54646U 22166E   24156.11177710  .00000012  00000+0 -35049-5 0  9994
2 54646  87.9306  31.9018 0001424  89.6675 270.4622 13.21824723 73831
